[{"OBJECT_NAME":"XTAR-EUR","OBJECT_ID":"2005-005A","EPOCH":"2022-08-18T00:18:37.034496","MEAN_MOTION":1.00274473,"ECCENTRICITY":0.000297,"INCLINATION":0.7295,"RA_OF_ASC_NODE":94.0795,"ARG_OF_PERICENTER":58.0729,"MEAN_ANOMALY":207.8531,"EPHEMERIS_TYPE":0,"CLASSIFICATION_TYPE":"U","NORAD_CAT_ID":28542,"ELEMENT_SET_NO":999,"REV_AT_EPOCH":6415,"BSTAR":0,"MEAN_MOTION_DOT":1.43e-6,"MEAN_MOTION_DDOT":0},{"OBJECT_NAME":"XM-3 (RHYTHM)","OBJECT_ID":"2005-008A","EPOCH":"2022-08-18T20:08:16.212192","MEAN_MOTION":1.00270568,"ECCENTRICITY":0.0001522,"INCLINATION":0.0213,"RA_OF_ASC_NODE":220.0137,"ARG_OF_PERICENTER":313.6036,"MEAN_ANOMALY":10.5097,"EPHEMERIS_TYPE":0,"CLASSIFICATION_TYPE":"U","NORAD_CAT_ID":28626,"ELEMENT_SET_NO":999,"REV_AT_EPOCH":6404,"BSTAR":0,"MEAN_MOTION_DOT":-2.12e-6,"MEAN_MOTION_DDOT":0},{"OBJECT_NAME":"INMARSAT 4-F1","OBJECT_ID":"2005-009A","EPOCH":"2022-08-18T21:14:04.087392","MEAN_MOTION":1.00272574,"ECCENTRICITY":0.0002778,"INCLINATION":3.6552,"RA_OF_ASC_NODE":35.6819,"ARG_OF_PERICENTER":125.9238,"MEAN_ANOMALY":267.6315,"EPHEMERIS_TYPE":0,"CLASSIFICATION_TYPE":"U","NORAD_CAT_ID":28628,"ELEMENT_SET_NO":999,"REV_AT_EPOCH":6364,"BSTAR":0,"MEAN_MOTION_DOT":-2.68e-6,"MEAN_MOTION_DDOT":0},{"OBJECT_NAME":"DIRECTV 8","OBJECT_ID":"2005-019A","EPOCH":"2022-08-18T15:02:46.485888","MEAN_MOTION":1.00270959,"ECCENTRICITY":0.000265,"INCLINATION":0.0157,"RA_OF_ASC_NODE":141.8135,"ARG_OF_PERICENTER":13.9974,"MEAN_ANOMALY":277.7878,"EPHEMERIS_TYPE":0,"CLASSIFICATION_TYPE":"U","NORAD_CAT_ID":28659,"ELEMENT_SET_NO":999,"REV_AT_EPOCH":6304,"BSTAR":0,"MEAN_MOTION_DOT":-6.0e-8,"MEAN_MOTION_DDOT":0},{"OBJECT_NAME":"GALAXY 28 (G-28)","OBJECT_ID":"2005-022A","EPOCH":"2022-08-18T20:07:23.472768","MEAN_MOTION":1.00269239,"ECCENTRICITY":0.0003112,"INCLINATION":0.014,"RA_OF_ASC_NODE":13.4616,"ARG_OF_PERICENTER":124.5467,"MEAN_ANOMALY":42.005,"EPHEMERIS_TYPE":0,"CLASSIFICATION_TYPE":"U","NORAD_CAT_ID":28702,"ELEMENT_SET_NO":999,"REV_AT_EPOCH":3796,"BSTAR":0,"MEAN_MOTION_DOT":-1.91e-6,"MEAN_MOTION_DDOT":0},{"OBJECT_NAME":"THAICOM 4","OBJECT_ID":"2005-028A","EPOCH":"2022-08-18T15:47:15.049248","MEAN_MOTION":1.00271634,"ECCENTRICITY":0.000221,"INCLINATION":0.0163,"RA_OF_ASC_NODE":111.4541,"ARG_OF_PERICENTER":46.3844,"MEAN_ANOMALY":165.4343,"EPHEMERIS_TYPE":0,"CLASSIFICATION_TYPE":"U","NORAD_CAT_ID":28786,"ELEMENT_SET_NO":999,"REV_AT_EPOCH":3823,"BSTAR":0,"MEAN_MOTION_DOT":-3.7e-6,"MEAN_MOTION_DDOT":0},{"OBJECT_NAME":"GALAXY 14 (G-14)","OBJECT_ID":"2005-030A","EPOCH":"2022-08-18T14:04:25.145760","MEAN_MOTION":1.00273282,"ECCENTRICITY":0.0001755,"INCLINATION":1.4159,"RA_OF_ASC_NODE":91.6276,"ARG_OF_PERICENTER":59.5426,"MEAN_ANOMALY":59.7271,"EPHEMERIS_TYPE":0,"CLASSIFICATION_TYPE":"U","NORAD_CAT_ID":28790,"ELEMENT_SET_NO":999,"REV_AT_EPOCH":6228,"BSTAR":0,"MEAN_MOTION_DOT":1.47e-6,"MEAN_MOTION_DDOT":0},{"OBJECT_NAME":"ANIK F1R","OBJECT_ID":"2005-036A","EPOCH":"2022-08-18T16:35:29.029344","MEAN_MOTION":1.0027214,"ECCENTRICITY":0.0002611,"INCLINATION":0.7137,"RA_OF_ASC_NODE":93.2536,"ARG_OF_PERICENTER":34.3429,"MEAN_ANOMALY":340.975,"EPHEMERIS_TYPE":0,"CLASSIFICATION_TYPE":"U","NORAD_CAT_ID":28868,"ELEMENT_SET_NO":999,"REV_AT_EPOCH":3243,"BSTAR":0,"MEAN_MOTION_DOT":-8.1e-7,"MEAN_MOTION_DDOT":0},{"OBJECT_NAME":"GALAXY 15 (G-15)","OBJECT_ID":"2005-041A","EPOCH":"2022-08-18T14:38:46.170240","MEAN_MOTION":1.0027457,"ECCENTRICITY":0.0001729,"INCLINATION":0.0342,"RA_OF_ASC_NODE":280.4118,"ARG_OF_PERICENTER":232.8582,"MEAN_ANOMALY":260.3973,"EPHEMERIS_TYPE":0,"CLASSIFICATION_TYPE":"U","NORAD_CAT_ID":28884,"ELEMENT_SET_NO":999,"REV_AT_EPOCH":6158,"BSTAR":0,"MEAN_MOTION_DOT":7.2e-7,"MEAN_MOTION_DDOT":0},{"OBJECT_NAME":"SYRACUSE 3A","OBJECT_ID":"2005-041B","EPOCH":"2022-08-18T13:53:07.421568","MEAN_MOTION":1.00271392,"ECCENTRICITY":0.0002877,"INCLINATION":1.2734,"RA_OF_ASC_NODE":92.7092,"ARG_OF_PERICENTER":61.3584,"MEAN_ANOMALY":68.1292,"EPHEMERIS_TYPE":0,"CLASSIFICATION_TYPE":"U","NORAD_CAT_ID":28885,"ELEMENT_SET_NO":999,"REV_AT_EPOCH":6172,"BSTAR":0,"MEAN_MOTION_DOT":1.21e-6,"MEAN_MOTION_DDOT":0},{"OBJECT_NAME":"INMARSAT 4-F2","OBJECT_ID":"2005-044A","EPOCH":"2022-08-18T21:11:42.527904","MEAN_MOTION":1.00273867,"ECCENTRICITY":0.0002923,"INCLINATION":3.5472,"RA_OF_ASC_NODE":37.9182,"ARG_OF_PERICENTER":123.3491,"MEAN_ANOMALY":187.7764,"EPHEMERIS_TYPE":0,"CLASSIFICATION_TYPE":"U","NORAD_CAT_ID":28899,"ELEMENT_SET_NO":999,"REV_AT_EPOCH":6149,"BSTAR":0,"MEAN_MOTION_DOT":2.0e-8,"MEAN_MOTION_DDOT":0},{"OBJECT_NAME":"SPACEWAY 2","OBJECT_ID":"2005-046B","EPOCH":"2022-08-18T14:26:54.503808","MEAN_MOTION":1.00272133,"ECCENTRICITY":2.79e-5,"INCLINATION":2.0449,"RA_OF_ASC_NODE":87.3245,"ARG_OF_PERICENTER":133.8116,"MEAN_ANOMALY":183.6155,"EPHEMERIS_TYPE":0,"CLASSIFICATION_TYPE":"U","NORAD_CAT_ID":28903,"ELEMENT_SET_NO":999,"REV_AT_EPOCH":3731,"BSTAR":0,"MEAN_MOTION_DOT":9.5e-7,"MEAN_MOTION_DDOT":0},{"OBJECT_NAME":"METEOSAT-9 (MSG-2)","OBJECT_ID":"2005-049B","EPOCH":"2022-08-18T05:16:10.509312","MEAN_MOTION":1.00266918,"ECCENTRICITY":7.79e-5,"INCLINATION":6.1549,"RA_OF_ASC_NODE":65.9002,"ARG_OF_PERICENTER":191.3029,"MEAN_ANOMALY":194.1379,"EPHEMERIS_TYPE":0,"CLASSIFICATION_TYPE":"U","NORAD_CAT_ID":28912,"ELEMENT_SET_NO":999,"REV_AT_EPOCH":6101,"BSTAR":0,"MEAN_MOTION_DOT":1.18e-6,"MEAN_MOTION_DDOT":0},{"OBJECT_NAME":"EUTELSAT 174A","OBJECT_ID":"2005-052A","EPOCH":"2022-08-18T21:22:51.474720","MEAN_MOTION":1.00270592,"ECCENTRICITY":0.0006078,"INCLINATION":0.6615,"RA_OF_ASC_NODE":92.3642,"ARG_OF_PERICENTER":56.592,"MEAN_ANOMALY":312.9726,"EPHEMERIS_TYPE":0,"CLASSIFICATION_TYPE":"U","NORAD_CAT_ID":28924,"ELEMENT_SET_NO":999,"REV_AT_EPOCH":3831,"BSTAR":0,"MEAN_MOTION_DOT":3.0e-8,"MEAN_MOTION_DDOT":0},{"OBJECT_NAME":"ECHOSTAR 10","OBJECT_ID":"2006-003A","EPOCH":"2022-08-18T15:17:11.050080","MEAN_MOTION":1.00273095,"ECCENTRICITY":0.0001533,"INCLINATION":0.0348,"RA_OF_ASC_NODE":275.9486,"ARG_OF_PERICENTER":189.2462,"MEAN_ANOMALY":340.8919,"EPHEMERIS_TYPE":0,"CLASSIFICATION_TYPE":"U","NORAD_CAT_ID":28935,"ELEMENT_SET_NO":999,"REV_AT_EPOCH":6044,"BSTAR":0,"MEAN_MOTION_DOT":-6.2e-7,"MEAN_MOTION_DDOT":0},{"OBJECT_NAME":"SPAINSAT","OBJECT_ID":"2006-007A","EPOCH":"2022-08-18T04:13:54.187104","MEAN_MOTION":1.00271155,"ECCENTRICITY":0.0005077,"INCLINATION":0.0612,"RA_OF_ASC_NODE":263.6403,"ARG_OF_PERICENTER":276.9627,"MEAN_ANOMALY":179.3856,"EPHEMERIS_TYPE":0,"CLASSIFICATION_TYPE":"U","NORAD_CAT_ID":28945,"ELEMENT_SET_NO":999,"REV_AT_EPOCH":6019,"BSTAR":0,"MEAN_MOTION_DOT":-2.24e-6,"MEAN_MOTION_DDOT":0},{"OBJECT_NAME":"EUTELSAT HOTBIRD 13E","OBJECT_ID":"2006-007B","EPOCH":"2022-08-18T20:44:42.666144","MEAN_MOTION":1.00273677,"ECCENTRICITY":0.000713,"INCLINATION":0.0416,"RA_OF_ASC_NODE":187.2459,"ARG_OF_PERICENTER":338.2356,"MEAN_ANOMALY":125.8778,"EPHEMERIS_TYPE":0,"CLASSIFICATION_TYPE":"U","NORAD_CAT_ID":28946,"ELEMENT_SET_NO":999,"REV_AT_EPOCH":6029,"BSTAR":0,"MEAN_MOTION_DOT":8.1e-7,"MEAN_MOTION_DDOT":0}]