XTAR-EUR                
1 28542U 05005A   22230.01292864  .00000143  00000+0  00000+0 0  9998
2 28542   0.7295  94.0795 0002970  58.0729 207.8531  1.00274473 64159
XM-3 (RHYTHM)           
1 28626U 05008A   22230.83907653 -.00000212  00000+0  00000+0 0  9991
2 28626   0.0213 220.0137 0001522 313.6036  10.5097  1.00270568 64044
INMARSAT 4-F1           
1 28628U 05009A   22230.88476953 -.00000268  00000+0  00000+0 0  9994
2 28628   3.6552  35.6819 0002778 125.9238 267.6315  1.00272574 63653
DIRECTV 8               
1 28659U 05019A   22230.62692692 -.00000006  00000+0  00000+0 0  9991
2 28659   0.0157 141.8135 0002650  13.9974 277.7878  1.00270959 63046
GALAXY 28 (G-28)        
1 28702U 05022A   22230.83846612 -.00000191  00000+0  00000+0 0  9995
2 28702   0.0140  13.4616 0003112 124.5467  42.0050  1.00269239 37961
THAICOM 4               
1 28786U 05028A   22230.65781307 -.00000370  00000+0  00000+0 0  9991
2 28786   0.0163 111.4541 0002210  46.3844 165.4343  1.00271634 38230
GALAXY 14 (G-14)        
1 28790U 05030A   22230.58640215  .00000147  00000+0  00000+0 0  9994
2 28790   1.4159  91.6276 0001755  59.5426  59.7271  1.00273282 62282
ANIK F1R                
1 28868U 05036A   22230.69130821 -.00000081  00000+0  00000+0 0  9993
2 28868   0.7137  93.2536 0002611  34.3429 340.9750  1.00272140 32432
GALAXY 15 (G-15)        
1 28884U 05041A   22230.61025660  .00000072  00000+0  00000+0 0  9992
2 28884   0.0342 280.4118 0001729 232.8582 260.3973  1.00274570 61580
SYRACUSE 3A             
1 28885U 05041B   22230.57855812  .00000121  00000+0  00000+0 0  9993
2 28885   1.2734  92.7092 0002877  61.3584  68.1292  1.00271392 61729
INMARSAT 4-F2           
1 28899U 05044A   22230.88313111  .00000002  00000+0  00000+0 0  9994
2 28899   3.5472  37.9182 0002923 123.3491 187.7764  1.00273867 61492
SPACEWAY 2              
1 28903U 05046B   22230.60201972  .00000095  00000+0  00000+0 0  9995
2 28903   2.0449  87.3245 0000279 133.8116 183.6155  1.00272133 37315
METEOSAT-9 (MSG-2)      
1 28912U 05049B   22230.21956608  .00000118  00000+0  00000+0 0  9994
2 28912   6.1549  65.9002 0000779 191.3029 194.1379  1.00266918 61014
EUTELSAT 174A           
1 28924U 05052A   22230.89087355  .00000003  00000+0  00000+0 0  9992
2 28924   0.6615  92.3642 0006078  56.5920 312.9726  1.00270592 38310
ECHOSTAR 10             
1 28935U 06003A   22230.63693345 -.00000062  00000+0  00000+0 0  9991
2 28935   0.0348 275.9486 0001533 189.2462 340.8919  1.00273095 60444
SPAINSAT                
1 28945U 06007A   22230.17632161 -.00000224  00000+0  00000+0 0  9994
2 28945   0.0612 263.6403 0005077 276.9627 179.3856  1.00271155 60198
EUTELSAT HOTBIRD 13E    
1 28946U 06007B   22230.86438271  .00000081  00000+0  00000+0 0  9997
2 28946   0.0416 187.2459 0007130 338.2356 125.8778  1.00273677 60297
